IRIDIUM 39              
1 25042U 97069D   25364.75615271  .00001306  00000+0  33467-3 0  9993
2 25042  86.3933 126.9058 0018022  16.4609 343.7177 14.49536546477431
IRIDIUM 38              
1 25043U 97069E   25364.78759716  .00000891  00000+0  28641-3 0  9996
2 25043  86.3985 150.5192 0003008 132.0213 228.1241 14.38334613474215
IRIDIUM 42              
1 25077U 97077A   25364.82715216  .00000807  00000+0  26813-3 0  9990
2 25077  86.3990 156.9128 0002067 114.8344 245.3068 14.36550786469428
IRIDIUM 44              
1 25078U 97077B   25364.80615795  .00000722  00000+0  22108-3 0  9999
2 25078  86.3984 138.3322 0003929  97.1669 262.9977 14.40449412472003
IRIDIUM 45              
1 25104U 97082A   25364.77039656  .00048719  00000+0  13426-2 0  9997
2 25104  86.3546 311.7851 0093164 312.0744  47.2606 15.32580996482036
IRIDIUM 24              
1 25105U 97082B   25364.52376660  .00000875  00000+0  25875-3 0  9993
2 25105  86.3911 357.0046 0012570 140.4599 219.7520 14.42347380471515
IRIDIUM 51              
1 25262U 98018A   25364.81778183  .00152724  00000+0  13892-2 0  9991
2 25262  86.3721 316.9355 0046468 195.4575 164.5278 15.66066205477471
IRIDIUM 57              
1 25273U 98019B   25364.67967516  .00000566  00000+0  18802-3 0  9991
2 25273  86.3942  62.8642 0002258  96.8261 263.3193 14.36066146452982
